*******************************************************************************
JPL/HORIZONS               1628 Strobel (A923 RT)          2023-Sep-04 11:13:15
Rec #:    1628 (+COV) Soln.date: 2023-Aug-22_07:27:25   # obs: 4605 (1923-2023)
 
IAU76/J2000 helio. ecliptic osc. elements (au, days, deg., period=Julian yrs):
 
  EPOCH=  2457579.5 ! 2016-Jul-10.00 (TDB)         Residual RMS= .2355
   EC= .0678321419357463   QR= 2.806651034456021   TP= 2456705.6372907683
   OM= 181.1918298557904   W=  289.2669974335138   IN= 19.38776769697581
   A= 3.010885872298077    MA= 164.8564106727864   ADIST= 3.215120710140134
   PER= 5.22456            N= .18865253            ANGMOM= .029780168
   DAN= 2.93142            DDN= 3.06565            L= 111.5246085
   B= -18.2622637          MOID= 1.87862003        TP= 2014-Feb-17.1372907683
 
Asteroid physical parameters (km, seconds, rotational period in hours):
   GM= n.a.                RAD= 29.6725            ROTPER= 9.418
   H= 10.27                G= .150                 B-V= .840
                           ALBEDO= .047            STYP= n.a.

ASTEROID comments: 
1: soln ref.= JPL#56, OCC=0
2: source=ORB
*******************************************************************************


*******************************************************************************
Ephemeris / API_USER Mon Sep  4 11:13:15 2023 Pasadena, USA      / Horizons
*******************************************************************************
Target body name: 1628 Strobel (A923 RT)          {source: JPL#56}
Center body name: Solar System Barycenter (0)     {source: DE441}
Center-site name: BODY CENTER
*******************************************************************************
Start time      : A.D. 2023-Aug-12 00:00:00.0000 TDB
Stop  time      : A.D. 2023-Aug-13 00:00:00.0000 TDB
Step-size       : 2880 minutes
*******************************************************************************
Center geodetic : 0.0, 0.0, 0.0                   {E-lon(deg),Lat(deg),Alt(km)}
Center cylindric: 0.0, 0.0, 0.0                   {E-lon(deg),Dxy(km),Dz(km)}
Center radii    : (undefined)
Small perturbers: Yes                             {source: SB441-N16}
Output units    : KM-S
Calendar mode   : Mixed Julian/Gregorian
Output type     : GEOMETRIC cartesian states
Output format   : 2 (position and velocity)
Reference frame : Ecliptic of J2000.0
*******************************************************************************
Initial IAU76/J2000 heliocentric ecliptic osculating elements (au, days, deg.):
  EPOCH=  2457579.5 ! 2016-Jul-10.00 (TDB)         Residual RMS= .2355         
   EC= .0678321419357463   QR= 2.806651034456021   TP= 2456705.6372907683      
   OM= 181.1918298557904   W=  289.2669974335138   IN= 19.38776769697581       
  Equivalent ICRF heliocentric cartesian coordinates (au, au/d):
   X= 3.979428180870795E-01  Y=-3.176338361441791E+00  Z=-2.224433145423485E-01
  VX= 9.227844688655654E-03 VY= 9.904368333134737E-04 VZ= 1.340976837301349E-04
Asteroid physical parameters (km, seconds, rotational period in hours):        
   GM= n.a.                RAD= 29.6725            ROTPER= 9.418               
   H= 10.27                G= .150                 B-V= .840                   
                           ALBEDO= .047            STYP= n.a.                  
*******************************************************************************
JDTDB
   X     Y     Z
   VX    VY    VZ
*******************************************************************************
$$SOE
2460168.500000000 = A.D. 2023-Aug-12 00:00:00.0000 TDB 
 X = 3.537113952660744E+08 Y = 2.471045619128211E+08 Z =-8.445121775489646E+07
 VX=-1.121995092332119E+01 VY= 1.269208093455093E+01 VZ=-4.545837792648968E+00
$$EOE
*******************************************************************************
 
TIME

  Barycentric Dynamical Time ("TDB" or T_eph) output was requested. This
continuous coordinate time is equivalent to the relativistic proper time
of a clock at rest in a reference frame co-moving with the solar system
barycenter but outside the system's gravity well. It is the independent
variable in the solar system relativistic equations of motion.

  TDB runs at a uniform rate of one SI second per second and is independent
of irregularities in Earth's rotation.
 
CALENDAR SYSTEM

  Mixed calendar mode was active such that calendar dates after AD 1582-Oct-15
(if any) are in the modern Gregorian system. Dates prior to 1582-Oct-5 (if any)
are in the Julian calendar system, which is automatically extended for dates
prior to its adoption on 45-Jan-1 BC.  The Julian calendar is useful for
matching historical dates. The Gregorian calendar more accurately corresponds
to the Earth's orbital motion and seasons. A "Gregorian-only" calendar mode is
available if such physical events are the primary interest.

REFERENCE FRAME AND COORDINATES

  Ecliptic at the standard reference epoch

    Reference epoch: J2000.0
    X-Y plane: adopted Earth orbital plane at the reference epoch
               Note: IAU76 obliquity of 84381.448 arcseconds wrt ICRF X-Y plane
    X-axis   : ICRF
    Z-axis   : perpendicular to the X-Y plane in the directional (+ or -) sense
               of Earth's north pole at the reference epoch.

  Symbol meaning:

    JDTDB    Julian Day Number, Barycentric Dynamical Time
      X      X-component of position vector (km)
      Y      Y-component of position vector (km)
      Z      Z-component of position vector (km)
      VX     X-component of velocity vector (km/sec)                           
      VY     Y-component of velocity vector (km/sec)                           
      VZ     Z-component of velocity vector (km/sec)                           

ABERRATIONS AND CORRECTIONS

 Geometric state vectors have NO corrections or aberrations applied.

Computations by ...

    Solar System Dynamics Group, Horizons On-Line Ephemeris System
    4800 Oak Grove Drive, Jet Propulsion Laboratory
    Pasadena, CA  91109   USA

    General site: https://ssd.jpl.nasa.gov/
    Mailing list: https://ssd.jpl.nasa.gov/email_list.html
    System news : https://ssd.jpl.nasa.gov/horizons/news.html
    User Guide  : https://ssd.jpl.nasa.gov/horizons/manual.html
    Connect     : browser        https://ssd.jpl.nasa.gov/horizons/app.html#/x
                  API            https://ssd-api.jpl.nasa.gov/doc/horizons.html
                  command-line   telnet ssd.jpl.nasa.gov 6775
                  e-mail/batch   https://ssd.jpl.nasa.gov/ftp/ssd/hrzn_batch.txt
                  scripts        https://ssd.jpl.nasa.gov/ftp/ssd/SCRIPTS
    Author      : Jon.D.Giorgini@jpl.nasa.gov
*******************************************************************************
